[{"OBJECT_NAME":"GAOFEN-5 02","OBJECT_ID":"2021-079A","EPOCH":"2026-03-09T22:28:30.715104","MEAN_MOTION":14.5772301,"ECCENTRICITY":3.379e-5,"INCLINATION":98.2675,"RA_OF_ASC_NODE":143.9335,"ARG_OF_PERICENTER":339.1436,"MEAN_ANOMALY":20.9749,"EPHEMERIS_TYPE":0,"CLASSIFICATION_TYPE":"U","NORAD_CAT_ID":49122,"ELEMENT_SET_NO":999,"REV_AT_EPOCH":23962,"BSTAR":9.830729e-5,"MEAN_MOTION_DOT":4.03e-6,"MEAN_MOTION_DDOT":0},{"OBJECT_NAME":"DELTA 2 R\/B","OBJECT_ID":"1990-034B","EPOCH":"2026-03-09T11:50:38.100192","MEAN_MOTION":14.22012271,"ECCENTRICITY":0.04686634,"INCLINATION":22.7441,"RA_OF_ASC_NODE":150.4279,"ARG_OF_PERICENTER":275.616,"MEAN_ANOMALY":79.1052,"EPHEMERIS_TYPE":0,"CLASSIFICATION_TYPE":"U","NORAD_CAT_ID":20571,"ELEMENT_SET_NO":999,"REV_AT_EPOCH":84430,"BSTAR":0.00052085196,"MEAN_MOTION_DOT":4.065e-5,"MEAN_MOTION_DDOT":0}]
